ONEWEB-0501             
1 54119U 22138G   23267.70606881  .00000048  00000+0  88531-4 0  9992
2 54119  87.9245 143.2954 0002377  81.7713 278.3689 13.19727525 45375
ONEWEB-0502             
1 54120U 22138H   23268.07091797 -.00000244  00000+0 -64157-3 0  9996
2 54120  87.9244 143.2163 0002089  83.6036 276.5335 13.19725081 46315
ONEWEB-0503             
1 54121U 22138J   23268.05987578 -.00000057  00000+0 -17581-3 0  9997
2 54121  87.9243 143.2263 0001660  95.5307 264.6015 13.19728369 46307
ONEWEB-0504             
1 54122U 22138K   23267.81978254 -.00001381  00000+0 -34825-2 0  9992
2 54122  87.9197 143.2735 0001868  90.6553 269.4794 13.19730907 45418
ONEWEB-0505             
1 54123U 22138L   23267.66499022  .00000054  00000+0  10160-3 0  9998
2 54123  87.9244 143.3030 0001939  91.3730 268.7625 13.19725174 45375
ONEWEB-0506             
1 54124U 22138M   23267.71553595  .00000923  00000+0  22736-2 0  9997
2 54124  87.9244 143.2899 0001999  79.8372 280.2986 13.19720378 45377
ONEWEB-0507             
1 54125U 22138N   23267.73606506  .00000145  00000+0  33078-3 0  9999
2 54125  87.9195 143.3088 0002031  79.4881 280.6481 13.19728265 45426
ONEWEB-0508             
1 54126U 22138P   23267.73290899  .00000094  00000+0  20174-3 0  9990
2 54126  87.9241 143.2936 0002417  83.1879 276.9529 13.19729154 45404
